NORAD_CAT_ID,OBJECT_NAME,OBJECT_TYPE,EPOCH,MEAN_MOTION,ECCENTRICITY,INCLINATION,RA_OF_ASC_NODE,ARG_OF_PERICENTER,MEAN_ANOMALY,BSTAR,MEAN_MOTION_DOT,MEAN_MOTION_DDOT,TLE_LINE0,TLE_LINE1,TLE_LINE2,SEMIMAJOR_AXIS,PERIOD,APOGEE,PERIGEE,DECAYED
53613.0,STARLINK-4655,PAYLOAD,2022-10-01 22:00:00,15.7319568,0.0001099,53.2145,115.8282,98.3252,216.1062,-0.00049053,-0.00068887,0.0,0 STARLINK-4655,1 53613U 22104AB  22274.91667824 -.00068887  00000-0 -49053-3 0  9990,2 53613  53.2145 115.8282 0001099  98.3252 216.1062 15.73195680  1302,6727.906999999997,91.533,350.51199999999994,349.033,0.0
53613.0,STARLINK-4655,PAYLOAD,2022-10-02 06:00:00,15.73150131,9.34e-05,53.2147,114.1775,104.5256,298.808,0.00024874,0.00034357,0.0,0 STARLINK-4655,1 53613U 22104AB  22275.25001157  .00034357  00000-0  24874-3 0  9996,2 53613  53.2147 114.1775 0000934 104.5256 298.8080 15.73150131  5554,6728.0369999999975,91.536,350.531,349.274,0.0
53613.0,STARLINK-4655,PAYLOAD,2022-10-02 14:00:01,15.73209336,0.0001072999999999,53.2152,112.5273,107.9805,24.228,8.408299999999999e-05,0.00011201,0.0,0 STARLINK-4655,1 53613U 22104AB  22275.58334491  .00011201  00000-0  84083-4 0  9994,2 53613  53.2152 112.5273 0001073 107.9805  24.2280 15.73209336  1301,6727.869000000002,91.533,350.455,349.01199999999994,0.0
53613.0,STARLINK-4655,PAYLOAD,2022-10-02 22:00:00,15.73171315,0.0001115999999999,53.2152,110.8798,87.7573,133.4138,0.00060003,0.00084335,0.0,0 STARLINK-4655,1 53613U 22104AB  22275.91667824  .00084335  00000-0  60003-3 0  9993,2 53613  53.2152 110.8798 0001116  87.7573 133.4138 15.73171315  1309,6727.977,91.535,350.593,349.091,0.0
53613.0,STARLINK-4655,PAYLOAD,2022-10-03 06:00:00,15.73266161,0.0001125999999999,53.2149,109.2288,95.9786,214.1242,-0.0003648,-0.00051648,0.0,0 STARLINK-4655,1 53613U 22104AB  22276.25001157 -.00051648  00000-0 -36480-3 0  9997,2 53613  53.2149 109.2288 0001126  95.9786 214.1242 15.73266161  5715,6727.706999999999,91.529,350.329,348.814,0.0
53613.0,STARLINK-4655,PAYLOAD,2022-10-03 14:00:01,15.73245069,0.0001179,53.215,107.579,101.5629,297.5208,-8.0484e-05,-0.00011921,0.0,0 STARLINK-4655,1 53613U 22104AB  22276.58334491 -.00011921  00000-0 -80484-4 0  9997,2 53613  53.2150 107.5790 0001179 101.5629 297.5208 15.73245069  1306,6727.767,91.531,350.425,348.838,0.0
53613.0,STARLINK-4655,PAYLOAD,2022-10-03 22:00:00,15.7323029,0.0001145,53.2149,105.9313,85.2938,42.7679,-6.6851e-05,-0.00010003,0.0,0 STARLINK-4655,1 53613U 22104AB  22276.91667824 -.00010003  00000-0 -66851-4 0  9995,2 53613  53.2149 105.9313 0001145  85.2938  42.7679 15.73230290  5824,6727.809,91.531,350.444,348.903,0.0
53613.0,STARLINK-4655,PAYLOAD,2022-10-04 14:00:01,15.73190823,0.0001348,53.2153,102.6302,94.2471,211.7116,-0.0004583,-0.00064424,0.0,0 STARLINK-4655,1 53613U 22104AB  22277.58334491 -.00064424  00000-0 -45830-3 0  9999,2 53613  53.2153 102.6302 0001348  94.2471 211.7116 15.73190823  1308,6727.920999999999,91.534,350.6930000000001,348.879,0.0
53613.0,STARLINK-4655,PAYLOAD,2022-10-04 22:00:00,15.73154778,0.0001372,53.2152,100.9826,80.3984,314.4711,0.00037848,0.00052728,0.0,0 STARLINK-4655,1 53613U 22104AB  22277.91667824  .00052728  00000-0  37848-3 0  9997,2 53613  53.2152 100.9826 0001372  80.3984 314.4711 15.73154778  5979,6728.024,91.536,350.81199999999984,348.966,0.0
53613.0,STARLINK-4655,PAYLOAD,2022-10-05 06:00:00,15.73184353,0.0001193999999999,53.2149,99.3314,85.4572,38.3157,-0.00035414,-0.00049992,0.0,0 STARLINK-4655,1 53613U 22104AB  22278.25001157 -.00049992  00000-0 -35414-3 0  9994,2 53613  53.2149  99.3314 0001194  85.4572  38.3157 15.73184353  6035,6727.94,91.534,350.608,349.001,0.0
53613.0,STARLINK-4655,PAYLOAD,2022-10-05 14:00:01,15.73175221,0.0001254,53.2148,97.682,89.9622,122.7477,7.6841e-05,0.00010166,0.0,0 STARLINK-4655,1 53613U 22104AB  22278.58335648  .00010166  00000-0  76841-4 0  9994,2 53613  53.2148  97.6820 0001254  89.9622 122.7477 15.73175221  1301,6727.965999999999,91.535,350.675,348.987,0.0
53613.0,STARLINK-4655,PAYLOAD,2022-10-05 22:00:00,15.73127421,0.0001161,53.2147,96.0344,72.4107,229.1498,0.0006399,0.0008987,0.0,0 STARLINK-4655,1 53613U 22104AB  22278.91667824  .00089870  00000-0  63990-3 0  9993,2 53613  53.2147  96.0344 0001161  72.4107 229.1498 15.73127421  6136,6728.102,91.537,350.74800000000016,349.186,0.0
53613.0,STARLINK-4655,PAYLOAD,2022-10-06 06:00:00,15.73217868,0.0001143,53.2171,94.3825,78.4247,312.0315,-0.0013147,-0.00181342,0.0,0 STARLINK-4655,1 53613U 22104AB  22279.25001157 -.00181342  00000-0 -13147-2 0  9999,2 53613  53.2171  94.3825 0001143  78.4247 312.0315 15.73217868  6189,6727.844,91.532,350.478,348.94,0.0
53613.0,STARLINK-4655,PAYLOAD,2022-10-06 14:00:01,15.73117907,0.0001222,53.2168,92.7323,71.3944,47.9848,-0.0060328999999999,-0.00770917,0.0,0 STARLINK-4655,1 53613U 22104AB  22279.58334491 -.00770917  00000-0 -60329-2 0  9991,2 53613  53.2168  92.7323 0001222  71.3944  47.9848 15.73117907  1301,6728.129,91.538,350.816,349.172,0.0
53613.0,STARLINK-4655,PAYLOAD,2022-10-06 22:42:55,15.72495034,0.000107,53.2174,90.9382,57.6594,318.9749,-0.0085852,-0.01052024,0.0,0 STARLINK-4655,1 53613U 22104AB  22279.94646991 -.01052024  00000-0 -85852-2 0  9993,2 53613  53.2174  90.9382 0001070  57.6594 318.9749 15.72495034  1302,6729.906,91.574,352.491,351.051,0.0
53613.0,STARLINK-4655,PAYLOAD,2022-10-07 00:00:00,15.72374811,0.0001054,53.2173,90.6733,63.6675,256.226,-0.0086487,-0.01054112,0.0,0 STARLINK-4655,1 53613U 22104AB  22280.00001157 -.01054112  00000-0 -86487-2 0  9996,2 53613  53.2173  90.6733 0001054  63.6675 256.2260 15.72374811  6303,6730.249,91.581,352.8230000000001,351.404,0.0
53613.0,STARLINK-4655,PAYLOAD,2022-10-07 14:00:01,15.71046766,0.000107,53.2177,87.7917,63.9703,318.3977,-0.0091766,-0.01056606,0.0,0 STARLINK-4655,1 53613U 22104AB  22280.58334491 -.01056606  00000-0 -91766-2 0  9995,2 53613  53.2177  87.7917 0001070  63.9703 318.3977 15.71046766  1305,6734.041,91.659,356.62699999999984,355.186,0.0
53613.0,STARLINK-4655,PAYLOAD,2022-10-07 22:00:00,15.70280437,0.0001179,53.2171,86.15,68.6053,39.6372,-0.0093649,-0.01045244,0.0,0 STARLINK-4655,1 53613U 22104AB  22280.91667824 -.01045244  00000-0 -93649-2 0  9999,2 53613  53.2171  86.1500 0001179  68.6053  39.6372 15.70280437  6457,6736.232,91.703,358.891,357.30300000000005,0.0
53613.0,STARLINK-4655,PAYLOAD,2022-10-08 14:00:01,15.68770522,0.0001143,53.2169,82.867,60.6782,216.5693,-0.010112,-0.01058121,0.0,0 STARLINK-4655,1 53613U 22104AB  22281.58334491 -.01058121  00000-0 -10112-1 0  9995,2 53613  53.2169  82.8670 0001143  60.6782 216.5693 15.68770522  6556,6740.554,91.792,363.189,361.648,0.0
53613.0,STARLINK-4655,PAYLOAD,2022-10-08 22:00:00,15.68007437,0.0001219,53.217,81.23100000000002,45.2748,315.108,-0.010372,-0.01052269,0.0,0 STARLINK-4655,1 53613U 22104AB  22281.91667824 -.01052269  00000-0 -10372-1 0  9996,2 53613  53.2170  81.2310 0001219  45.2748 315.1080 15.68007437  1310,6742.74,91.836,365.427,363.783,0.0
53613.0,STARLINK-4655,PAYLOAD,2022-10-09 14:00:01,15.66486942,0.0001499,53.2172,77.9593,46.9332,116.9834,-0.011012,-0.01050067,0.0,0 STARLINK-4655,1 53613U 22104AB  22282.58334491 -.01050067  00000-0 -11012-1 0  9997,2 53613  53.2172  77.9593 0001499  46.9332 116.9834 15.66486942  6717,6747.103,91.925,369.979,367.956,0.0
53613.0,STARLINK-4655,PAYLOAD,2022-10-09 22:00:00,15.65725157,0.0001447,53.2172,76.3284,46.0183,198.295,-0.011304,-0.01045584,0.0,0 STARLINK-4655,1 53613U 22104AB  22282.91667824 -.01045584  00000-0 -11304-1 0  9995,2 53613  53.2172  76.3284 0001447  46.0183 198.2950 15.65725157  1300,6749.291,91.97,372.133,370.179,0.0
53613.0,STARLINK-4655,PAYLOAD,2022-10-10 06:00:00,15.64966882,0.0001237,53.2173,74.696,46.6226,277.176,-0.011689,-0.01048259,0.0,0 STARLINK-4655,1 53613U 22104AB  22283.25001157 -.01048259  00000-0 -11689-1 0  9992,2 53613  53.2173  74.6960 0001237  46.6226 277.1760 15.64966882  6812,6751.471,92.015,374.171,372.501,0.0
53613.0,STARLINK-4655,PAYLOAD,2022-10-10 14:00:01,15.64209564,0.0001291999999999,53.2174,73.0684,47.7851,354.5837,-0.012087,-0.01051243,0.0,0 STARLINK-4655,1 53613U 22104AB  22283.58334491 -.01051243  00000-0 -12087-1 0  9998,2 53613  53.2174  73.0684 0001292  47.7851 354.5837 15.64209564  1307,6753.65,92.059,376.388,374.642,0.0
53613.0,STARLINK-4655,PAYLOAD,2022-10-10 22:00:01,15.63447392,0.0001426999999999,53.2172,71.4426,46.0307,74.0625,-0.012393,-0.01046266,0.0,0 STARLINK-4655,1 53613U 22104AB  22283.91668981 -.01046266  00000-0 -12393-1 0  9998,2 53613  53.2172  71.4426 0001427  46.0307  74.0625 15.63447392  6923,6755.845,92.104,378.674,376.746,0.0
53613.0,STARLINK-4655,PAYLOAD,2022-10-11 14:00:01,15.61928912,0.0001385,53.2176,68.194,50.4572,222.151,-0.0131639999999999,-0.01062996,0.0,0 STARLINK-4655,1 53613U 22104AB  22284.58334491 -.01062996  00000-0 -13164-1 0  9993,2 53613  53.2176  68.1940 0001385  50.4572 222.1510 15.61928912  1303,6760.223000000001,92.194,383.024,381.151,0.0
53613.0,STARLINK-4655,PAYLOAD,2022-10-11 22:00:00,15.61173257,0.0001584,53.2169,66.5735,34.5998,312.927,-0.013623,-0.0106772,0.0,0 STARLINK-4655,1 53613U 22104AB  22284.91667824 -.01067720  00000-0 -13623-1 0  9999,2 53613  53.2169  66.5735 0001584  34.5998 312.9270 15.61173257  1300,6762.404,92.238,385.34,383.198,0.0
53613.0,STARLINK-4655,PAYLOAD,2022-10-12 06:00:00,15.60409125,0.0001419,53.2174,64.9521,39.5107,22.0281,-0.013953,-0.01062148,0.0,0 STARLINK-4655,1 53613U 22104AB  22285.25001157 -.01062148  00000-0 -13953-1 0  9993,2 53613  53.2174  64.9521 0001419  39.5107  22.0281 15.60409125  7138,6764.611,92.283,387.436,385.517,0.0
53613.0,STARLINK-4655,PAYLOAD,2022-10-12 14:00:01,15.59649004,0.0001608,53.2174,63.33600000000001,42.1178,92.5159,-0.014341,-0.01060411,0.0,0 STARLINK-4655,1 53613U 22104AB  22285.58334491 -.01060411  00000-0 -14341-1 0  9992,2 53613  53.2174  63.3360 0001608  42.1178  92.5159 15.59649004  1309,6766.809,92.328,389.762,387.586,0.0
